start=new Date('2021-09-30T00:00:00.000Z').valueOf();
sats=[{"MEAN_ANOMALY":"256.3286","NORAD_CAT_ID":"46152","OBJECT_ID":"2020-057AM","PERIOD":"95.592","LAUNCH_DATE":"2020-08-18","RCS_SIZE":"LARGE","COUNTRY_CODE":"US","ARG_OF_PERICENTER":"103.7856","CLASSIFICATION_TYPE":"U","EPHEMERIS_TYPE":"0","BSTAR":"0.00011665000000","ELEMENT_SET_NO":"999","MEAN_MOTION_DDOT":"0.0000000000000","MEAN_MOTION":"15.06402396","OBJECT_TYPE":"PAYLOAD","GP_ID":"185792741","REV_AT_EPOCH":"6154","TIME_SYSTEM":"UTC","INCLINATION":"53.0557","ECCENTRICITY":"0.00013750","SEMIMAJOR_AXIS":"6925.341","DECAY_DATE":null,"PERIAPSIS":"546.254","RA_OF_ASC_NODE":"39.5248","APOAPSIS":"548.158","SITE":"AFETR","EPOCH":"2021-09-29T08:43:38.899488","CENTER_NAME":"EARTH","TLE_LINE2":"2 46152  53.0557  39.5248 0001375 103.7856 256.3286 15.06402396 61546","MEAN_ELEMENT_THEORY":"SGP4","FILE":"3134986","OBJECT_NAME":"STARLINK-1634","TLE_LINE1":"1 46152U 20057AM  21272.36364467  .00001457  00000-0  11665-3 0  9994","REF_FRAME":"TEME","MEAN_MOTION_DOT":"0.00001457"},{"MEAN_MOTION_DOT":"0.00000429","REF_FRAME":"TEME","TLE_LINE1":"1 46153U 20057AN  21272.33231951  .00000429  00000-0  47658-4 0  9993","FILE":"3134986","OBJECT_NAME":"STARLINK-1636","MEAN_ELEMENT_THEORY":"SGP4","TLE_LINE2":"2 46153  53.0555  19.6697 0001164  96.9025 263.2096 15.06406706 61814","CENTER_NAME":"EARTH","APOAPSIS":"547.999","SITE":"AFETR","EPOCH":"2021-09-29T07:58:32.405664","RA_OF_ASC_NODE":"19.6697","DECAY_DATE":null,"PERIAPSIS":"546.387","SEMIMAJOR_AXIS":"6925.328","ECCENTRICITY":"0.00011640","INCLINATION":"53.0555","TIME_SYSTEM":"UTC","REV_AT_EPOCH":"6181","GP_ID":"185792492","MEAN_MOTION":"15.06406706","OBJECT_TYPE":"PAYLOAD","BSTAR":"0.00004765800000","ELEMENT_SET_NO":"999","MEAN_MOTION_DDOT":"0.0000000000000","EPHEMERIS_TYPE":"0","CLASSIFICATION_TYPE":"U","ARG_OF_PERICENTER":"96.9025","COUNTRY_CODE":"US","RCS_SIZE":"LARGE","PERIOD":"95.592","LAUNCH_DATE":"2020-08-18","NORAD_CAT_ID":"46153","MEAN_ANOMALY":"263.2096","OBJECT_ID":"2020-057AN"},{"TLE_LINE2":"2 46154  53.0553  27.5370 0001344 100.3939 259.7202 15.06405023 62409","EPOCH":"2021-09-29T19:21:54.093312","SITE":"AFETR","APOAPSIS":"548.129","CENTER_NAME":"EARTH","DECAY_DATE":null,"SEMIMAJOR_AXIS":"6925.333","PERIAPSIS":"546.267","RA_OF_ASC_NODE":"27.5370","MEAN_MOTION_DOT":"0.00001988","REF_FRAME":"TEME","OBJECT_NAME":"STARLINK-1642","FILE":"3135066","MEAN_ELEMENT_THEORY":"SGP4","TLE_LINE1":"1 46154U 20057AP  21272.80687608  .00001988  00000-0  15227-3 0  9997","EPHEMERIS_TYPE":"0","ELEMENT_SET_NO":"999","MEAN_MOTION_DDOT":"0.0000000000000","BSTAR":"0.00015227000000","ARG_OF_PERICENTER":"100.3939","CLASSIFICATION_TYPE":"U","RCS_SIZE":"LARGE","COUNTRY_CODE":"US","OBJECT_ID":"2020-057AP","MEAN_ANOMALY":"259.7202","NORAD_CAT_ID":"46154","LAUNCH_DATE":"2020-08-18","PERIOD":"95.592","ECCENTRICITY":"0.00013440","INCLINATION":"53.0553","GP_ID":"185795210","REV_AT_EPOCH":"6240","TIME_SYSTEM":"UTC","OBJECT_TYPE":"PAYLOAD","MEAN_MOTION":"15.06405023"},{"MEAN_MOTION_DOT":"0.00000905","TLE_LINE1":"1 46155U 20057AQ  21272.23463905  .00000905  00000-0  79653-4 0  9999","FILE":"3134986","OBJECT_NAME":"STARLINK-1667","MEAN_ELEMENT_THEORY":"SGP4","REF_FRAME":"TEME","CENTER_NAME":"EARTH","APOAPSIS":"548.097","EPOCH":"2021-09-29T05:37:52.813920","SITE":"AFETR","TLE_LINE2":"2 46155  53.0549   0.1121 0001267  94.9864 265.1270 15.06398173 63320","RA_OF_ASC_NODE":"0.1121","DECAY_DATE":null,"SEMIMAJOR_AXIS":"6925.354","PERIAPSIS":"546.342","INCLINATION":"53.0549","ECCENTRICITY":"0.00012670","MEAN_MOTION":"15.06398173","OBJECT_TYPE":"PAYLOAD","REV_AT_EPOCH":"6332","TIME_SYSTEM":"UTC","GP_ID":"185791990","CLASSIFICATION_TYPE":"U","ARG_OF_PERICENTER":"94.9864","BSTAR":"0.00007965300000","ELEMENT_SET_NO":"999","MEAN_MOTION_DDOT":"0.0000000000000","EPHEMERIS_TYPE":"0","PERIOD":"95.592","LAUNCH_DATE":"2020-08-18","MEAN_ANOMALY":"265.1270","NORAD_CAT_ID":"46155","OBJECT_ID":"2020-057AQ","COUNTRY_CODE":"US","RCS_SIZE":"LARGE"},{"MEAN_MOTION_DOT":"0.00000561","REF_FRAME":"TEME","TLE_LINE1":"1 46156U 20057AR  21272.29177040  .00000561  00000-0  56572-4 0  9991","OBJECT_NAME":"STARLINK-1545","FILE":"3134986","MEAN_ELEMENT_THEORY":"SGP4","TLE_LINE2":"2 46156  53.0549  19.8559 0001177  96.0683 264.0440 15.06400544 63069","CENTER_NAME":"EARTH","APOAPSIS":"548.027","SITE":"AFETR","EPOCH":"2021-09-29T07:00:08.962560","RA_OF_ASC_NODE":"19.8559","DECAY_DATE":null,"SEMIMAJOR_AXIS":"6925.347","PERIAPSIS":"546.397","ECCENTRICITY":"0.00011770","INCLINATION":"53.0549","REV_AT_EPOCH":"6306","TIME_SYSTEM":"UTC","GP_ID":"185792242","MEAN_MOTION":"15.06400544","OBJECT_TYPE":"PAYLOAD","BSTAR":"0.00005657200000","ELEMENT_SET_NO":"999","MEAN_MOTION_DDOT":"0.0000000000000","EPHEMERIS_TYPE":"0","CLASSIFICATION_TYPE":"U","ARG_OF_PERICENTER":"96.0683","COUNTRY_CODE":"US","RCS_SIZE":"LARGE","PERIOD":"95.592","LAUNCH_DATE":"2020-08-18","MEAN_ANOMALY":"264.0440","NORAD_CAT_ID":"46156","OBJECT_ID":"2020-057AR"},{"ARG_OF_PERICENTER":"92.9783","CLASSIFICATION_TYPE":"U","EPHEMERIS_TYPE":"0","BSTAR":"-0.00005278800000","MEAN_MOTION_DDOT":"0.0000000000000","ELEMENT_SET_NO":"999","MEAN_ANOMALY":"267.1371","NORAD_CAT_ID":"46157","OBJECT_ID":"2020-057AS","PERIOD":"95.593","LAUNCH_DATE":"2020-08-18","RCS_SIZE":"LARGE","COUNTRY_CODE":"US","INCLINATION":"53.0546","ECCENTRICITY":"0.00014430","MEAN_MOTION":"15.06390294","OBJECT_TYPE":"PAYLOAD","GP_ID":"185800631","REV_AT_EPOCH":"6279","TIME_SYSTEM":"UTC","APOAPSIS":"548.243","EPOCH":"2021-09-29T13:03:44.064864","SITE":"AFETR","CENTER_NAME":"EARTH","TLE_LINE2":"2 46157  53.0546 358.7120 0001443  92.9783 267.1371 15.06390294 62794","PERIAPSIS":"546.244","DECAY_DATE":null,"SEMIMAJOR_AXIS":"6925.378","RA_OF_ASC_NODE":"358.7120","MEAN_MOTION_DOT":"-0.00001067","FILE":"3135305","MEAN_ELEMENT_THEORY":"SGP4","OBJECT_NAME":"STARLINK-1587","TLE_LINE1":"1 46157U 20057AS  21272.54426001 -.00001067  00000-0 -52788-4 0  9993","REF_FRAME":"TEME"},{"MEAN_MOTION_DOT":"-0.00000152","FILE":"3134986","OBJECT_NAME":"STARLINK-1589","MEAN_ELEMENT_THEORY":"SGP4","TLE_LINE1":"1 46158U 20057AT  21272.27517692 -.00000152  00000-0  87154-5 0  9990","REF_FRAME":"TEME","EPOCH":"2021-09-29T06:36:15.285888","SITE":"AFETR","APOAPSIS":"548.045","CENTER_NAME":"EARTH","TLE_LINE2":"2 46158  53.0562 359.9249 0001209 102.8430 257.2694 15.06402008 63356","PERIAPSIS":"546.370","DECAY_DATE":null,"SEMIMAJOR_AXIS":"6925.342","RA_OF_ASC_NODE":"359.9249","INCLINATION":"53.0562","ECCENTRICITY":"0.00012090","OBJECT_TYPE":"PAYLOAD","MEAN_MOTION":"15.06402008","GP_ID":"185791740","REV_AT_EPOCH":"6335","TIME_SYSTEM":"UTC","ARG_OF_PERICENTER":"102.8430","CLASSIFICATION_TYPE":"U","EPHEMERIS_TYPE":"0","MEAN_MOTION_DDOT":"0.0000000000000","ELEMENT_SET_NO":"999","BSTAR":"0.00000871540000","OBJECT_ID":"2020-057AT","MEAN_ANOMALY":"257.2694","NORAD_CAT_ID":"46158","LAUNCH_DATE":"2020-08-18","PERIOD":"95.592","RCS_SIZE":"LARGE","COUNTRY_CODE":"US"},{"MEAN_MOTION":"15.06396916","OBJECT_TYPE":"PAYLOAD","TIME_SYSTEM":"UTC","REV_AT_EPOCH":"6280","GP_ID":"185791491","INCLINATION":"53.0554","ECCENTRICITY":"0.00013740","PERIOD":"95.592","LAUNCH_DATE":"2020-08-18","NORAD_CAT_ID":"46159","MEAN_ANOMALY":"253.3710","OBJECT_ID":"2020-057AU","COUNTRY_CODE":"US","RCS_SIZE":"LARGE","CLASSIFICATION_TYPE":"U","ARG_OF_PERICENTER":"106.7430","BSTAR":"0.00005817400000","ELEMENT_SET_NO":"999","MEAN_MOTION_DDOT":"0.0000000000000","EPHEMERIS_TYPE":"0","TLE_LINE1":"1 46159U 20057AU  21272.38206858  .00000585  00000-0  58174-4 0  9990","OBJECT_NAME":"STARLINK-1595","FILE":"3134986","MEAN_ELEMENT_THEORY":"SGP4","REF_FRAME":"TEME","MEAN_MOTION_DOT":"0.00000585","RA_OF_ASC_NODE":"39.4517","SEMIMAJOR_AXIS":"6925.358","DECAY_DATE":null,"PERIAPSIS":"546.271","CENTER_NAME":"EARTH","APOAPSIS":"548.175","SITE":"AFETR","EPOCH":"2021-09-29T09:10:10.725312","TLE_LINE2":"2 46159  53.0554  39.4517 0001374 106.7430 253.3710 15.06396916 62807"},{"FILE":"3135293","OBJECT_NAME":"STARLINK-1598","MEAN_ELEMENT_THEORY":"SGP4","TLE_LINE1":"1 46160U 20057AV  21272.57192616 -.00000112  00000-0  11360-4 0  9992","REF_FRAME":"TEME","MEAN_MOTION_DOT":"-0.00000112","DECAY_DATE":null,"SEMIMAJOR_AXIS":"6925.369","PERIAPSIS":"546.359","RA_OF_ASC_NODE":"18.5912","EPOCH":"2021-09-29T13:43:34.420224","SITE":"AFETR","APOAPSIS":"548.109","CENTER_NAME":"EARTH","TLE_LINE2":"2 46160  53.0556  18.5912 0001264  94.5606 265.5527 15.06393357 62510","OBJECT_TYPE":"PAYLOAD","MEAN_MOTION":"15.06393357","GP_ID":"185800552","TIME_SYSTEM":"UTC","REV_AT_EPOCH":"6251","INCLINATION":"53.0556","ECCENTRICITY":"0.00012640","OBJECT_ID":"2020-057AV","NORAD_CAT_ID":"46160","MEAN_ANOMALY":"265.5527","LAUNCH_DATE":"2020-08-18","PERIOD":"95.593","RCS_SIZE":"LARGE","COUNTRY_CODE":"US","ARG_OF_PERICENTER":"94.5606","CLASSIFICATION_TYPE":"U","EPHEMERIS_TYPE":"0","ELEMENT_SET_NO":"999","MEAN_MOTION_DDOT":"0.0000000000000","BSTAR":"0.00001136000000"},{"TLE_LINE2":"2 46161  53.0556  19.5827 0001004 107.5247 252.5852 15.06407990 63073","CENTER_NAME":"EARTH","APOAPSIS":"547.884","EPOCH":"2021-09-29T08:25:04.365408","SITE":"AFETR","RA_OF_ASC_NODE":"19.5827","SEMIMAJOR_AXIS":"6925.324","DECAY_DATE":null,"PERIAPSIS":"546.494","MEAN_MOTION_DOT":"0.00002204","REF_FRAME":"TEME","TLE_LINE1":"1 46161U 20057AW  21272.35074497  .00002204  00000-0  16678-3 0  9994","FILE":"3134986","MEAN_ELEMENT_THEORY":"SGP4","OBJECT_NAME":"STARLINK-1600","BSTAR":"0.00016678000000","ELEMENT_SET_NO":"999","MEAN_MOTION_DDOT":"0.0000000000000","EPHEMERIS_TYPE":"0","CLASSIFICATION_TYPE":"U","ARG_OF_PERICENTER":"107.5247","COUNTRY_CODE":"US","RCS_SIZE":"LARGE","PERIOD":"95.592","LAUNCH_DATE":"2020-08-18","MEAN_ANOMALY":"252.5852","NORAD_CAT_ID":"46161","OBJECT_ID":"2020-057AW","ECCENTRICITY":"0.00010040","INCLINATION":"53.0556","TIME_SYSTEM":"UTC","REV_AT_EPOCH":"6307","GP_ID":"185792493","MEAN_MOTION":"15.06407990","OBJECT_TYPE":"PAYLOAD"}];
